[{"OBJECT_NAME":"APRIZESAT 8","OBJECT_ID":"2013-066K","EPOCH":"2026-03-09T20:33:12.795840","MEAN_MOTION":14.87425173,"ECCENTRICITY":0.00446225,"INCLINATION":97.8117,"RA_OF_ASC_NODE":17.7888,"ARG_OF_PERICENTER":252.384,"MEAN_ANOMALY":107.25,"EPHEMERIS_TYPE":0,"CLASSIFICATION_TYPE":"U","NORAD_CAT_ID":39425,"ELEMENT_SET_NO":999,"REV_AT_EPOCH":66490,"BSTAR":0.00018960498,"MEAN_MOTION_DOT":1.689e-5,"MEAN_MOTION_DDOT":0},{"OBJECT_NAME":"TITAN 3C TRANSTAGE DEB","OBJECT_ID":"1965-082AF","EPOCH":"2026-03-09T01:14:43.860192","MEAN_MOTION":14.82280461,"ECCENTRICITY":0.00143376,"INCLINATION":32.0679,"RA_OF_ASC_NODE":67.4525,"ARG_OF_PERICENTER":138.4883,"MEAN_ANOMALY":221.6857,"EPHEMERIS_TYPE":0,"CLASSIFICATION_TYPE":"U","NORAD_CAT_ID":1668,"ELEMENT_SET_NO":999,"REV_AT_EPOCH":20347,"BSTAR":0.00029021131,"MEAN_MOTION_DOT":2.413e-5,"MEAN_MOTION_DDOT":0}]
